ORBCOMM FM24 [-]        
1 25478U 98053D   24069.75188095  .00001456  00000+0  55206-3 0  9991
2 25478  45.0090 306.3855 0001650  51.0846 309.0148 14.35344461330659
ORBCOMM FM25 [-]        
1 25479U 98053E   24069.99579476  .00001414  00000+0  53770-3 0  9993
2 25479  45.0080 303.4743 0003984  75.8599 284.2690 14.35327509330980
ORBCOMM FM26 [-]        
1 25480U 98053F   24069.90982017  .00001214  00000+0  47340-3 0  9999
2 25480  45.0074 297.7490 0005883  99.6727 260.4785 14.34814922330919
ORBCOMM FM27 [+]        
1 25481U 98053G   24069.91349229  .00001448  00000+0  54982-3 0  9992
2 25481  45.0064 304.1262 0000257 347.7884  12.2957 14.35304120330908
ORBCOMM FM28 [-]        
1 25482U 98053H   24069.77999936  .00001501  00000+0  56297-3 0  9994
2 25482  45.0046 243.4325 0004467 137.5385 222.5808 14.35759220331550
ORBCOMM FM30 [-]        
1 25980U 99065A   24069.87772409  .00001146  00000+0  44804-3 0  9992
2 25980  45.0312 123.3675 0007425 216.8641 143.1696 14.34955527267701
ORBCOMM FM31 [-]        
1 25981U 99065B   24069.98274798  .00001090  00000+0  42883-3 0  9996
2 25981  45.0226 116.6105 0005105 241.7402 118.2930 14.34967236268248
ORBCOMM FM32 [+]        
1 25982U 99065C   24069.98972505  .00001146  00000+0  45713-3 0  9995
2 25982  45.0153 129.9359 0007498 237.3530 122.6594 14.33935234268041
